{"type": "FeatureCollection", "features": [ {"type": "Feature", "properties": {"norad_id": 35885, "name": "COSMOS 2251 DEB", "group": "cosmos-2251-debris", "lat": -67.51391875383852, "lon": 171.38315370292378, "alt_km": 785.3813567562975, "timestamp": "2025-12-05T18:53:13.678541+00:00", "meta": {"OBJECT_NAME": "COSMOS 2251 DEB", "OBJECT_ID": "1993-036ATY", "EPOCH": "2025-12-01T06:48:48.094272", "MEAN_MOTION": 14.37483132, "ECCENTRICITY": 0.0022714, "INCLINATION": 74.0277, "RA_OF_ASC_NODE": 315.8881, "ARG_OF_PERICENTER": 39.4634, "MEAN_ANOMALY": 320.8169, "EPHEMERIS_TYPE": 0, "CLASSIFICATION_TYPE": "U", "NORAD_CAT_ID": 35885, "ELEMENT_SET_NO": 999, "REV_AT_EPOCH": 64851, "BSTAR": 0.00036957, "MEAN_MOTION_DOT": 1.083e-05, "MEAN_MOTION_DDOT": 0}, "tle": {"line1": "1 35885U 93036ATY 25335.28388998  .00001083  00000+0  36957-3 0  9997", "line2": "2 35885  74.0277 315.8881 0022714  39.4634 320.8169 14.37483132648516"}}, "geometry": {"type": "Point", "coordinates": [171.38315370292378, -67.51391875383852]}}, {"type": "Feature", "properties": {"norad_id": 35888, "name": "COSMOS 2251 DEB", "group": "cosmos-2251-debris", "lat": 45.19443784579062, "lon": 26.657022295347144, "alt_km": 698.2624215356582, "timestamp": "2025-12-05T18:53:13.678551+00:00", "meta": {"OBJECT_NAME": "COSMOS 2251 DEB", "OBJECT_ID": "1993-036AUB", "EPOCH": "2025-12-03T20:34:04.412928", "MEAN_MOTION": 14.58269247, "ECCENTRICITY": 0.0048625, "INCLINATION": 74.0341, "RA_OF_ASC_NODE": 13.576, "ARG_OF_PERICENTER": 148.3598, "MEAN_ANOMALY": 212.0506, "EPHEMERIS_TYPE": 0, "CLASSIFICATION_TYPE": "U", "NORAD_CAT_ID": 35888, "ELEMENT_SET_NO": 999, "REV_AT_EPOCH": 86144, "BSTAR": 0.00076242, "MEAN_MOTION_DOT": 3.553e-05, "MEAN_MOTION_DDOT": 0}, "tle": {"line1": "1 35888U 93036AUB 25337.85699552  .00003553  00000+0  76242-3 0  9991", "line2": "2 35888  74.0341  13.5760 0048625 148.3598 212.0506 14.58269247861445"}}, "geometry": {"type": "Point", "coordinates": [26.657022295347144, 45.19443784579062]}}, {"type": "Feature", "properties": {"norad_id": 35890, "name": "COSMOS 2251 DEB", "group": "cosmos-2251-debris", "lat": 61.713963906540386, "lon": 43.623258885664846, "alt_km": 696.6593940167086, "timestamp": "2025-12-05T18:53:13.678561+00:00", "meta": {"OBJECT_NAME": "COSMOS 2251 DEB", "OBJECT_ID": "1993-036AUD", "EPOCH": "2025-12-04T01:10:55.994880", "MEAN_MOTION": 14.5723152, "ECCENTRICITY": 0.00534651, "INCLINATION": 73.9374, "RA_OF_ASC_NODE": 259.3147, "ARG_OF_PERICENTER": 25.2643, "MEAN_ANOMALY": 335.1117, "EPHEMERIS_TYPE": 0, "CLASSIFICATION_TYPE": "U", "NORAD_CAT_ID": 35890, "ELEMENT_SET_NO": 999, "REV_AT_EPOCH": 65024, "BSTAR": 0.0043241391, "MEAN_MOTION_DOT": 0.00019954, "MEAN_MOTION_DDOT": 0}, "tle": {"line1": "1 35890U 93036AUD 25338.04925920  .00019954  00000+0  43241-2 0  9991", "line2": "2 35890  73.9374 259.3147 0053465  25.2643 335.1117 14.57231520650244"}}, "geometry": {"type": "Point", "coordinates": [43.623258885664846, 61.713963906540386]}}, {"type": "Feature", "properties": {"norad_id": 35891, "name": "COSMOS 2251 DEB", "group": "cosmos-2251-debris", "lat": -70.02037090097184, "lon": 56.60838554819283, "alt_km": 452.2714361076696, "timestamp": "2025-12-05T18:53:13.678571+00:00", "meta": {"OBJECT_NAME": "COSMOS 2251 DEB", "OBJECT_ID": "1993-036AUE", "EPOCH": "2025-12-04T15:01:20.364096", "MEAN_MOTION": 15.32277929, "ECCENTRICITY": 0.0045839, "INCLINATION": 73.9882, "RA_OF_ASC_NODE": 111.2679, "ARG_OF_PERICENTER": 242.1756, "MEAN_ANOMALY": 117.4798, "EPHEMERIS_TYPE": 0, "CLASSIFICATION_TYPE": "U", "NORAD_CAT_ID": 35891, "ELEMENT_SET_NO": 999, "REV_AT_EPOCH": 67096, "BSTAR": 0.0026607, "MEAN_MOTION_DOT": 0.00086647, "MEAN_MOTION_DDOT": 0}, "tle": {"line1": "1 35891U 93036AUE 25338.62593014  .00086647  00000+0  26607-2 0  9991", "line2": "2 35891  73.9882 111.2679 0045839 242.1756 117.4798 15.32277929670960"}}, "geometry": {"type": "Point", "coordinates": [56.60838554819283, -70.02037090097184]}}, {"type": "Feature", "properties": {"norad_id": 35895, "name": "COSMOS 2251 DEB", "group": "cosmos-2251-debris", "lat": -69.77861407724636, "lon": -51.21129055844723, "alt_km": 1040.595445842594, "timestamp": "2025-12-05T18:53:13.678581+00:00", "meta": {"OBJECT_NAME": "COSMOS 2251 DEB", "OBJECT_ID": "1993-036AUJ", "EPOCH": "2025-11-28T10:48:22.739616", "MEAN_MOTION": 14.01419981, "ECCENTRICITY": 0.01996382, "INCLINATION": 74.0486, "RA_OF_ASC_NODE": 12.4453, "ARG_OF_PERICENTER": 114.4344, "MEAN_ANOMALY": 247.7763, "EPHEMERIS_TYPE": 0, "CLASSIFICATION_TYPE": "U", "NORAD_CAT_ID": 35895, "ELEMENT_SET_NO": 999, "REV_AT_EPOCH": 58812, "BSTAR": 0.0013219318, "MEAN_MOTION_DOT": 2.352e-05, "MEAN_MOTION_DDOT": 0}, "tle": {"line1": "1 35895U 93036AUJ 25332.45026319  .00002352  00000+0  13219-2 0  9995", "line2": "2 35895  74.0486  12.4453 0199638 114.4344 247.7763 14.01419981588125"}}, "geometry": {"type": "Point", "coordinates": [-51.21129055844723, -69.77861407724636]}}, {"type": "Feature", "properties": {"norad_id": 35898, "name": "COSMOS 2251 DEB", "group": "cosmos-2251-debris", "lat": -20.914090671393883, "lon": -54.79069039915235, "alt_km": 614.87033763819, "timestamp": "2025-12-05T18:53:13.678591+00:00", "meta": {"OBJECT_NAME": "COSMOS 2251 DEB", "OBJECT_ID": "1993-036AUM", "EPOCH": "2025-12-04T04:28:31.920384", "MEAN_MOTION": 14.94490528, "ECCENTRICITY": 0.00791912, "INCLINATION": 73.9907, "RA_OF_ASC_NODE": 314.7414, "ARG_OF_PERICENTER": 100.6329, "MEAN_ANOMALY": 271.1161, "EPHEMERIS_TYPE": 0, "CLASSIFICATION_TYPE": "U", "NORAD_CAT_ID": 35898, "ELEMENT_SET_NO": 999, "REV_AT_EPOCH": 66682, "BSTAR": 0.0012849069, "MEAN_MOTION_DOT": 0.00014754, "MEAN_MOTION_DDOT": 0}, "tle": {"line1": "1 35898U 93036AUM 25338.18648056  .00014754  00000+0  12849-2 0  9999", "line2": "2 35898  73.9907 314.7414 0079191 100.6329 271.1161 14.94490528666825"}}, "geometry": {"type": "Point", "coordinates": [-54.79069039915235, -20.914090671393883]}}, {"type": "Feature", "properties": {"norad_id": 35901, "name": "COSMOS 2251 DEB", "group": "cosmos-2251-debris", "lat": 41.9291778385252, "lon": 52.0891943064258, "alt_km": 540.9257059391612, "timestamp": "2025-12-05T18:53:13.678601+00:00", "meta": {"OBJECT_NAME": "COSMOS 2251 DEB", "OBJECT_ID": "1993-036AUQ", "EPOCH": "2025-12-04T10:52:45.005952", "MEAN_MOTION": 15.05869442, "ECCENTRICITY": 0.0006111, "INCLINATION": 74.0123, "RA_OF_ASC_NODE": 39.9052, "ARG_OF_PERICENTER": 7.2934, "MEAN_ANOMALY": 9.1516, "EPHEMERIS_TYPE": 0, "CLASSIFICATION_TYPE": "U", "NORAD_CAT_ID": 35901, "ELEMENT_SET_NO": 999, "REV_AT_EPOCH": 86002, "BSTAR": 0.0079953, "MEAN_MOTION_DOT": 0.00118128, "MEAN_MOTION_DDOT": 0}, "tle": {"line1": "1 35901U 93036AUQ 25338.45329868  .00118128  00000+0  79953-2 0  9990", "line2": "2 35901  74.0123  39.9052 0006111   7.2934   9.1516 15.05869442860021"}}, "geometry": {"type": "Point", "coordinates": [52.0891943064258, 41.9291778385252]}}, {"type": "Feature", "properties": {"norad_id": 35902, "name": "COSMOS 2251 DEB", "group": "cosmos-2251-debris", "lat": 16.03064716270263, "lon": 62.47003549671308, "alt_km": 871.167579533886, "timestamp": "2025-12-05T18:53:13.678612+00:00", "meta": {"OBJECT_NAME": "COSMOS 2251 DEB", "OBJECT_ID": "1993-036AUR", "EPOCH": "2025-12-01T03:04:00.207552", "MEAN_MOTION": 14.26791124, "ECCENTRICITY": 0.01016301, "INCLINATION": 73.9836, "RA_OF_ASC_NODE": 255.6555, "ARG_OF_PERICENTER": 12.6385, "MEAN_ANOMALY": 347.7274, "EPHEMERIS_TYPE": 0, "CLASSIFICATION_TYPE": "U", "NORAD_CAT_ID": 35902, "ELEMENT_SET_NO": 999, "REV_AT_EPOCH": 60964, "BSTAR": 0.0014097892, "MEAN_MOTION_DOT": 3.584e-05, "MEAN_MOTION_DDOT": 0}, "tle": {"line1": "1 35902U 93036AUR 25335.12778018  .00003584  00000+0  14098-2 0  9995", "line2": "2 35902  73.9836 255.6555 0101630  12.6385 347.7274 14.26791124609642"}}, "geometry": {"type": "Point", "coordinates": [62.47003549671308, 16.03064716270263]}}, {"type": "Feature", "properties": {"norad_id": 35905, "name": "COSMOS 2251 DEB", "group": "cosmos-2251-debris", "lat": 61.62529510969741, "lon": 12.91322036267002, "alt_km": 625.637437853029, "timestamp": "2025-12-05T18:53:13.678622+00:00", "meta": {"OBJECT_NAME": "COSMOS 2251 DEB", "OBJECT_ID": "1993-036AUU", "EPOCH": "2025-12-03T23:07:38.819136", "MEAN_MOTION": 14.98817132, "ECCENTRICITY": 0.00910194, "INCLINATION": 74.0324, "RA_OF_ASC_NODE": 228.6251, "ARG_OF_PERICENTER": 310.7702, "MEAN_ANOMALY": 48.561, "EPHEMERIS_TYPE": 0, "CLASSIFICATION_TYPE": "U", "NORAD_CAT_ID": 35905, "ELEMENT_SET_NO": 999, "REV_AT_EPOCH": 88451, "BSTAR": 0.0011414912, "MEAN_MOTION_DOT": 0.00015, "MEAN_MOTION_DDOT": 0}, "tle": {"line1": "1 35905U 93036AUU 25337.96364374  .00015000  00000+0  11415-2 0  9994", "line2": "2 35905  74.0324 228.6251 0091019 310.7702  48.5610 14.98817132884514"}}, "geometry": {"type": "Point", "coordinates": [12.91322036267002, 61.62529510969741]}}, {"type": "Feature", "properties": {"norad_id": 35959, "name": "COSMOS 2251 DEB", "group": "cosmos-2251-debris", "lat": 61.62087268202743, "lon": -3.200266858064088, "alt_km": 757.2155637892101, "timestamp": "2025-12-05T18:53:13.678632+00:00", "meta": {"OBJECT_NAME": "COSMOS 2251 DEB", "OBJECT_ID": "1993-036AUZ", "EPOCH": "2025-12-04T05:44:56.809824", "MEAN_MOTION": 14.3412652, "ECCENTRICITY": 0.002123, "INCLINATION": 74.0321, "RA_OF_ASC_NODE": 327.6255, "ARG_OF_PERICENTER": 50.7905, "MEAN_ANOMALY": 309.5127, "EPHEMERIS_TYPE": 0, "CLASSIFICATION_TYPE": "U", "NORAD_CAT_ID": 35959, "ELEMENT_SET_NO": 999, "REV_AT_EPOCH": 84806, "BSTAR": 0.00022958, "MEAN_MOTION_DOT": 6.18e-06, "MEAN_MOTION_DDOT": 0}, "tle": {"line1": "1 35959U 93036AUZ 25338.23954641  .00000618  00000+0  22958-3 0  9990", "line2": "2 35959  74.0321 327.6255 0021230  50.7905 309.5127 14.34126520848065"}}, "geometry": {"type": "Point", "coordinates": [-3.200266858064088, 61.62087268202743]}}]}